{
  "norad_id": 63910,
  "name": "STARLINK-34071",
  "history": [
    {
      "epoch": "2026-04-13T15:51:03.534912Z",
      "apogee_km": 484.02595081603977,
      "perigee_km": 482.06502486101635,
      "latitude_deg": 7.439165580000524e-06,
      "longitude_deg": -100.67226644455866,
      "height_km": 482.9310332409672,
      "semi_major_axis_km": 6861.182487838528,
      "eccentricity": 0.0001429,
      "inclination_deg": 43.001,
      "raan_deg": 338.9405,
      "arg_perigee_deg": 263.6329,
      "mean_anomaly_deg": 96.436,
      "mean_motion_rev_day": 15.27581205
    },
    {
      "epoch": "2026-04-15T21:12:22.411872Z",
      "apogee_km": 483.79999736652644,
      "perigee_km": 482.2617235322141,
      "latitude_deg": -9.647523790932475e-06,
      "longitude_deg": 164.25304281786705,
      "height_km": 482.79130199998207,
      "semi_major_axis_km": 6861.16786044937,
      "eccentricity": 0.0001121,
      "inclination_deg": 42.9985,
      "raan_deg": 326.3857,
      "arg_perigee_deg": 271.1815,
      "mean_anomaly_deg": 88.8908,
      "mean_motion_rev_day": 15.2758609
    },
    {
      "epoch": "2026-04-16T00:20:41.026272Z",
      "apogee_km": 484.0451950563356,
      "perigee_km": 481.9799890291306,
      "latitude_deg": 6.2357474792354915e-06,
      "longitude_deg": 116.3064062375557,
      "height_km": 482.8838948829669,
      "semi_major_axis_km": 6861.149592042733,
      "eccentricity": 0.0001505,
      "inclination_deg": 43.0019,
      "raan_deg": 325.6455,
      "arg_perigee_deg": 264.759,
      "mean_anomaly_deg": 95.309,
      "mean_motion_rev_day": 15.27592191
    },
    {
      "epoch": "2026-04-17T20:17:03.846624Z",
      "apogee_km": 483.7745106221564,
      "perigee_km": 482.2583329390118,
      "latitude_deg": 1.528134628880638e-05,
      "longitude_deg": 165.06469570494963,
      "height_km": 483.0840917705719,
      "semi_major_axis_km": 6861.153421780584,
      "eccentricity": 0.00011049,
      "inclination_deg": 43.0011,
      "raan_deg": 315.3034,
      "arg_perigee_deg": 247.4095,
      "mean_anomaly_deg": 112.664,
      "mean_motion_rev_day": 15.27590912
    },
    {
      "epoch": "2026-04-18T19:49:24.639168Z",
      "apogee_km": 483.7908984485821,
      "perigee_km": 482.19637168899226,
      "latitude_deg": 3.3089438562020177e-05,
      "longitude_deg": 165.47406241146206,
      "height_km": 482.9091530903852,
      "semi_major_axis_km": 6861.130635068787,
      "eccentricity": 0.0001162,
      "inclination_deg": 43.0002,
      "raan_deg": 309.7661,
      "arg_perigee_deg": 259.9568,
      "mean_anomaly_deg": 100.1153,
      "mean_motion_rev_day": 15.27598522
    },
    {
      "epoch": "2026-04-19T19:21:45.423936Z",
      "apogee_km": 484.83539624976856,
      "perigee_km": 481.20447200022954,
      "latitude_deg": -2.482414935706092e-05,
      "longitude_deg": 165.88017967029347,
      "height_km": 483.2075424897384,
      "semi_major_axis_km": 6861.156934124999,
      "eccentricity": 0.0002646,
      "inclination_deg": 43.0053,
      "raan_deg": 304.2256,
      "arg_perigee_deg": 256.9643,
      "mean_anomaly_deg": 103.0913,
      "mean_motion_rev_day": 15.27589739
    },
    {
      "epoch": "2026-04-19T20:55:54.758784Z",
      "apogee_km": 484.27050026125653,
      "perigee_km": 481.73187913106904,
      "latitude_deg": 1.8651035589913664e-05,
      "longitude_deg": 141.90868353936446,
      "height_km": 482.95382460954335,
      "semi_major_axis_km": 6861.138189696162,
      "eccentricity": 0.000185,
      "inclination_deg": 43.0037,
      "raan_deg": 303.8574,
      "arg_perigee_deg": 262.0661,
      "mean_anomaly_deg": 97.9981,
      "mean_motion_rev_day": 15.27595999
    },
    {
      "epoch": "2026-04-21T18:26:26.786112Z",
      "apogee_km": 483.8311954819437,
      "perigee_km": 482.1351265781377,
      "latitude_deg": -2.5336384003493252e-05,
      "longitude_deg": 166.6982010827492,
      "height_km": 483.29842703640696,
      "semi_major_axis_km": 6861.12016103004,
      "eccentricity": 0.0001236,
      "inclination_deg": 43.002,
      "raan_deg": 293.1494,
      "arg_perigee_deg": 230.554,
      "mean_anomaly_deg": 129.5202,
      "mean_motion_rev_day": 15.2760202
    },
    {
      "epoch": "2026-04-22T19:32:57.314400Z",
      "apogee_km": 484.92685743589755,
      "perigee_km": 481.34801668952605,
      "latitude_deg": -3.1023949895643647e-05,
      "longitude_deg": 143.12922259948797,
      "height_km": 483.0309733763075,
      "semi_major_axis_km": 6861.2744370627115,
      "eccentricity": 0.0002608,
      "inclination_deg": 43.005,
      "raan_deg": 287.2388,
      "arg_perigee_deg": 266.3027,
      "mean_anomaly_deg": 93.7526,
      "mean_motion_rev_day": 15.27550498
    },
    {
      "epoch": "2026-04-22T21:07:06.271680Z",
      "apogee_km": 484.70417662312593,
      "perigee_km": 481.30653892755527,
      "latitude_deg": -2.3074508007417013e-05,
      "longitude_deg": 119.15906601900566,
      "height_km": 483.00134088128823,
      "semi_major_axis_km": 6861.14235777534,
      "eccentricity": 0.0002476,
      "inclination_deg": 43.005,
      "raan_deg": 286.8704,
      "arg_perigee_deg": 262.6287,
      "mean_anomaly_deg": 97.4283,
      "mean_motion_rev_day": 15.27594607
    },
    {
      "epoch": "2026-04-24T12:21:01.788192Z",
      "apogee_km": 483.56344621084645,
      "perigee_km": 482.42861480759984,
      "latitude_deg": -2.5957986094899396e-05,
      "longitude_deg": -120.16586299197931,
      "height_km": 483.2633779482953,
      "semi_major_axis_km": 6861.133030509222,
      "eccentricity": 8.27e-05,
      "inclination_deg": 43.0,
      "raan_deg": 277.638,
      "arg_perigee_deg": 209.9593,
      "mean_anomaly_deg": 150.1211,
      "mean_motion_rev_day": 15.27597722
    },
    {
      "epoch": "2026-04-25T10:19:10.951968Z",
      "apogee_km": 483.67585300715655,
      "perigee_km": 482.09095729356704,
      "latitude_deg": 2.2457412992072475e-05,
      "longitude_deg": -95.77933769973205,
      "height_km": 483.4109586860765,
      "semi_major_axis_km": 6861.0204051503615,
      "eccentricity": 0.0001155,
      "inclination_deg": 42.9927,
      "raan_deg": 272.4649,
      "arg_perigee_deg": 161.9498,
      "mean_anomaly_deg": 198.1395,
      "mean_motion_rev_day": 15.27635336
    },
    {
      "epoch": "2026-04-26T20:50:39.008256Z",
      "apogee_km": 484.63289764729234,
      "perigee_km": 481.32350734052125,
      "latitude_deg": -3.0698269741189925e-05,
      "longitude_deg": 96.82043566867458,
      "height_km": 482.31093882718295,
      "semi_major_axis_km": 6861.1152024939065,
      "eccentricity": 0.00024117,
      "inclination_deg": 43.0055,
      "raan_deg": 264.3495,
      "arg_perigee_deg": 285.6132,
      "mean_anomaly_deg": 74.4453,
      "mean_motion_rev_day": 15.27603676
    },
    {
      "epoch": "2026-04-27T18:48:50.492736Z",
      "apogee_km": 484.12929746464306,
      "perigee_km": 481.85140318433514,
      "latitude_deg": -4.4562265981411813e-05,
      "longitude_deg": 121.1992996438039,
      "height_km": 482.71440399031394,
      "semi_major_axis_km": 6861.127350324488,
      "eccentricity": 0.000166,
      "inclination_deg": 43.0044,
      "raan_deg": 259.1785,
      "arg_perigee_deg": 272.6852,
      "mean_anomaly_deg": 87.3809,
      "mean_motion_rev_day": 15.27599619
    },
    {
      "epoch": "2026-04-28T10:30:24.967872Z",
      "apogee_km": 483.8263090393557,
      "perigee_km": 482.2619597407156,
      "latitude_deg": 4.242784307154919e-06,
      "longitude_deg": -118.53357913134249,
      "height_km": 483.15927883950235,
      "semi_major_axis_km": 6861.181134390035,
      "eccentricity": 0.000114,
      "inclination_deg": 43.0025,
      "raan_deg": 255.4837,
      "arg_perigee_deg": 244.3542,
      "mean_anomaly_deg": 115.7192,
      "mean_motion_rev_day": 15.27581657
    },
    {
      "epoch": "2026-04-29T10:02:45.961728Z",
      "apogee_km": 483.75619901043774,
      "perigee_km": 482.24345556275784,
      "latitude_deg": 1.4185384173555885e-05,
      "longitude_deg": -118.12756157777034,
      "height_km": 482.9248468530468,
      "semi_major_axis_km": 6861.1368272865975,
      "eccentricity": 0.00011024,
      "inclination_deg": 43.0021,
      "raan_deg": 249.9439,
      "arg_perigee_deg": 258.6868,
      "mean_anomaly_deg": 101.386,
      "mean_motion_rev_day": 15.27596454
    },
    {
      "epoch": "2026-04-30T09:35:06.209088Z",
      "apogee_km": 484.0283927182236,
      "perigee_km": 481.9837720796686,
      "latitude_deg": -2.4088598188078177e-05,
      "longitude_deg": -117.71627706788384,
      "height_km": 482.85568561574553,
      "semi_major_axis_km": 6861.143082398946,
      "eccentricity": 0.000149,
      "inclination_deg": 43.003,
      "raan_deg": 244.4063,
      "arg_perigee_deg": 265.933,
      "mean_anomaly_deg": 94.1351,
      "mean_motion_rev_day": 15.27594365
    },
    {
      "epoch": "2026-05-02T08:39:49.472064Z",
      "apogee_km": 484.11735098927056,
      "perigee_km": 481.89434070721654,
      "latitude_deg": 6.992752310676389e-06,
      "longitude_deg": -116.90676161086516,
      "height_km": 483.0085929840514,
      "semi_major_axis_km": 6861.142845848243,
      "eccentricity": 0.000162,
      "inclination_deg": 43.0014,
      "raan_deg": 233.3295,
      "arg_perigee_deg": 258.2804,
      "mean_anomaly_deg": 101.7866,
      "mean_motion_rev_day": 15.27594444
    },
    {
      "epoch": "2026-05-03T06:38:00.202272Z",
      "apogee_km": 483.5036934347172,
      "perigee_km": 482.4251282929299,
      "latitude_deg": 9.613093953728108e-06,
      "longitude_deg": -92.52493162688002,
      "height_km": 483.17257939746736,
      "semi_major_axis_km": 6861.101410863824,
      "eccentricity": 7.86e-05,
      "inclination_deg": 43.0003,
      "raan_deg": 228.1583,
      "arg_perigee_deg": 216.7099,
      "mean_anomaly_deg": 143.3699,
      "mean_motion_rev_day": 15.27608282
    }
  ]
}